HERMES-3                
1 63835U 25052BR  26068.93751242  .00020316  00000+0  69958-3 0  9995
2 63835  97.3987 324.6131 0007993 112.9583 247.2502 15.30039785 54863
STARLINK-34198          
1 64388U 25127U   26068.31274676  .00027465  00000+0  10034-2 0  9997
2 64388  42.9952 181.5401 0001364 174.3802 185.7065 15.27593906 42411
